[{"OBJECT_NAME":"STARLINK-35862","OBJECT_ID":"2025-271M","EPOCH":"2026-03-09T11:27:43.364736","MEAN_MOTION":15.30197618,"ECCENTRICITY":7.934e-5,"INCLINATION":53.1564,"RA_OF_ASC_NODE":140.9573,"ARG_OF_PERICENTER":90.6009,"MEAN_ANOMALY":269.5083,"EPHEMERIS_TYPE":0,"CLASSIFICATION_TYPE":"U","NORAD_CAT_ID":66628,"ELEMENT_SET_NO":999,"REV_AT_EPOCH":1753,"BSTAR":0.00060038737,"MEAN_MOTION_DOT":0.00017463,"MEAN_MOTION_DDOT":0},{"OBJECT_NAME":"CZ-4B DEB","OBJECT_ID":"2006-015E","EPOCH":"2026-03-09T20:34:53.082912","MEAN_MOTION":15.19885806,"ECCENTRICITY":0.00461993,"INCLINATION":98.0565,"RA_OF_ASC_NODE":201.7753,"ARG_OF_PERICENTER":62.4887,"MEAN_ANOMALY":298.1031,"EPHEMERIS_TYPE":0,"CLASSIFICATION_TYPE":"U","NORAD_CAT_ID":29538,"ELEMENT_SET_NO":999,"REV_AT_EPOCH":5389,"BSTAR":0.0022587151,"MEAN_MOTION_DOT":0.00050103,"MEAN_MOTION_DDOT":0}]
